[{"OBJECT_NAME":"STARLINK-33818","OBJECT_ID":"2025-071K","EPOCH":"2026-03-09T12:07:07.606560","MEAN_MOTION":15.30184723,"ECCENTRICITY":0.00012152,"INCLINATION":53.1586,"RA_OF_ASC_NODE":140.6377,"ARG_OF_PERICENTER":91.1268,"MEAN_ANOMALY":268.9872,"EPHEMERIS_TYPE":0,"CLASSIFICATION_TYPE":"U","NORAD_CAT_ID":63502,"ELEMENT_SET_NO":999,"REV_AT_EPOCH":5274,"BSTAR":0.00056478664,"MEAN_MOTION_DOT":0.00016397,"MEAN_MOTION_DDOT":0},{"OBJECT_NAME":"COSMOS 1869","OBJECT_ID":"1987-062A","EPOCH":"2026-03-09T20:30:29.271744","MEAN_MOTION":15.35392408,"ECCENTRICITY":0.00185772,"INCLINATION":82.5127,"RA_OF_ASC_NODE":201.6716,"ARG_OF_PERICENTER":61.4986,"MEAN_ANOMALY":298.8125,"EPHEMERIS_TYPE":0,"CLASSIFICATION_TYPE":"U","NORAD_CAT_ID":18214,"ELEMENT_SET_NO":999,"REV_AT_EPOCH":8931,"BSTAR":0.00042037944,"MEAN_MOTION_DOT":0.00014573,"MEAN_MOTION_DDOT":0}]
